[{"OBJECT_NAME":"KUIPER-00018","OBJECT_ID":"2025-088K","EPOCH":"2026-03-09T09:14:13.950816","MEAN_MOTION":14.79966884,"ECCENTRICITY":0.00010275,"INCLINATION":51.9017,"RA_OF_ASC_NODE":101.9157,"ARG_OF_PERICENTER":120.7858,"MEAN_ANOMALY":239.3206,"EPHEMERIS_TYPE":0,"CLASSIFICATION_TYPE":"U","NORAD_CAT_ID":63733,"ELEMENT_SET_NO":999,"REV_AT_EPOCH":4744,"BSTAR":0.001710843,"MEAN_MOTION_DOT":0.00012856,"MEAN_MOTION_DDOT":0},{"OBJECT_NAME":"TRANSIT 2A","OBJECT_ID":"1960-007A","EPOCH":"2026-03-09T21:46:25.770144","MEAN_MOTION":14.35888263,"ECCENTRICITY":0.02545561,"INCLINATION":66.6918,"RA_OF_ASC_NODE":262.7942,"ARG_OF_PERICENTER":232.6737,"MEAN_ANOMALY":125.0927,"EPHEMERIS_TYPE":0,"CLASSIFICATION_TYPE":"U","NORAD_CAT_ID":45,"ELEMENT_SET_NO":999,"REV_AT_EPOCH":36579,"BSTAR":0.00012468852,"MEAN_MOTION_DOT":4.14e-6,"MEAN_MOTION_DDOT":0}]
